fName,sName,dName,phone,address,zipCode,city,department
Fredrik,Aspell,Fredrik Aspell,0707121001,Industrivägen 4,112 34,Stockholm,Konsult
Linnea,Olhans,Linnea Olhans,0707121092,Centralgatan 4,852 32,Sundsvall,Säljare
Fredrik,Aspell,Fredrik Aspell,0707121001,Industrivägen 4,112 34,Stockholm,Konsult
Linnea,Olhans,Linnea Olhans,0707121092,Centralgatan 4,852 32,Sundsvall,SäljareFredrik,Aspell,Fredrik Aspell,0707121001,Industrivägen 4,112 34,Stockholm,Konsult
Linnea,Olhans,Linnea Olhans,0707121092,Centralgatan 4,852 32,Sundsvall,Säljare
Fredrik,Aspell,Fredrik Aspell,0707121001,Industrivägen 4,112 34,Stockholm,Konsult
Linnea,Olhans,Linnea Olhans,0707121092,Centralgatan 4,852 32,Sundsvall,Säljare
Fredrik,Aspell,Fredrik Aspell,0707121001,Industrivägen 4,112 34,Stockholm,Konsult
Linnea,Olhans,Linnea Olhans,0707121092,Centralgatan 4,852 32,Sundsvall,SäljareFredrik,Aspell,Fredrik Aspell,0707121001,Industrivägen 4,112 34,Stockholm,Konsult
Linnea,Olhans,Linnea Olhans,0707121092,Centralgatan 4,852 32,Sundsvall,Säljare
Fredrik,Aspell,Fredrik Aspell,0707121001,Industrivägen 4,112 34,Stockholm,Konsult
Linnea,Olhans,Linnea Olhans,0707121092,Centralgatan 4,852 32,Sundsvall,Säljare
Fredrik,Aspell,Fredrik Aspell,0707121001,Industrivägen 4,112 34,Stockholm,Konsult
Linnea,Olhans,Linnea Olhans,0707121092,Centralgatan 4,852 32,Sundsvall,SäljareFredrik,Aspell,Fredrik Aspell,0707121001,Industrivägen 4,112 34,Stockholm,Konsult
Linnea,Olhans,Linnea Olhans,0707121092,Centralgatan 4,852 32,Sundsvall,Säljare
Fredrik,Aspell,Fredrik Aspell,0707121001,Industrivägen 4,112 34,Stockholm,Konsult
Linnea,Olhans,Linnea Olhans,0707121092,Centralgatan 4,852 32,Sundsvall,Säljare
Fredrik,Aspell,Fredrik Aspell,0707121001,Industrivägen 4,112 34,Stockholm,Konsult
Linnea,Olhans,Linnea Olhans,0707121092,Centralgatan 4,852 32,Sundsvall,SäljareFredrik,Aspell,Fredrik Aspell,0707121001,Industrivägen 4,112 34,Stockholm,Konsult
Linnea,Olhans,Linnea Olhans,0707121092,Centralgatan 4,852 32,Sundsvall,Säljare
Fredrik,Aspell,Fredrik Aspell,0707121001,Industrivägen 4,112 34,Stockholm,Konsult
Linnea,Olhans,Linnea Olhans,0707121092,Centralgatan 4,852 32,Sundsvall,Säljare
Fredrik,Aspell,Fredrik Aspell,0707121001,Industrivägen 4,112 34,Stockholm,Konsult
Linnea,Olhans,Linnea Olhans,0707121092,Centralgatan 4,852 32,Sundsvall,SäljareFredrik,Aspell,Fredrik Aspell,0707121001,Industrivägen 4,112 34,Stockholm,Konsult
Linnea,Olhans,Linnea Olhans,0707121092,Centralgatan 4,852 32,Sundsvall,Säljare
Fredrik,Aspell,Fredrik Aspell,0707121001,Industrivägen 4,112 34,Stockholm,Konsult
Linnea,Olhans,Linnea Olhans,0707121092,Centralgatan 4,852 32,Sundsvall,Säljare
Fredrik,Aspell,Fredrik Aspell,0707121001,Industrivägen 4,112 34,Stockholm,Konsult
Linnea,Olhans,Linnea Olhans,0707121092,Centralgatan 4,852 32,Sundsvall,SäljareFredrik,Aspell,Fredrik Aspell,0707121001,Industrivägen 4,112 34,Stockholm,Konsult
Linnea,Olhans,Linnea Olhans,0707121092,Centralgatan 4,852 32,Sundsvall,Säljare
Fredrik,Aspell,Fredrik Aspell,0707121001,Industrivägen 4,112 34,Stockholm,Konsult
Linnea,Olhans,Linnea Olhans,0707121092,Centralgatan 4,852 32,Sundsvall,Säljare
Fredrik,Aspell,Fredrik Aspell,0707121001,Industrivägen 4,112 34,Stockholm,Konsult
Linnea,Olhans,Linnea Olhans,0707121092,Centralgatan 4,852 32,Sundsvall,SäljareFredrik,Aspell,Fredrik Aspell,0707121001,Industrivägen 4,112 34,Stockholm,Konsult
Linnea,Olhans,Linnea Olhans,0707121092,Centralgatan 4,852 32,Sundsvall,Säljare
Fredrik,Aspell,Fredrik Aspell,0707121001,Industrivägen 4,112 34,Stockholm,Konsult
Linnea,Olhans,Linnea Olhans,0707121092,Centralgatan 4,852 32,Sundsvall,Säljare
Fredrik,Aspell,Fredrik Aspell,0707121001,Industrivägen 4,112 34,Stockholm,Konsult
Linnea,Olhans,Linnea Olhans,0707121092,Centralgatan 4,852 32,Sundsvall,SäljareFredrik,Aspell,Fredrik Aspell,0707121001,Industrivägen 4,112 34,Stockholm,Konsult
Linnea,Olhans,Linnea Olhans,0707121092,Centralgatan 4,852 32,Sundsvall,Säljare
